STARLINK-31259          
1 59076U 24041C   25004.89811929  .00004018  00000+0  16340-3 0  9995
2 59076  43.0004 210.5635 0001564 263.4653  96.6020 15.25899950 47666
STARLINK-31281          
1 59077U 24041D   25004.83039460  .00002302  00000+0  97825-4 0  9994
2 59077  43.0015 210.9161 0001800 256.7725 103.2926 15.25907963 48750
STARLINK-31274          
1 59078U 24041E   25004.91833722  .00006631  00000+0  26302-3 0  9997
2 59078  42.9994 209.8357 0001332 284.6975  75.3728 15.25921045 48729
STARLINK-31257          
1 59079U 24041F   25004.91607312  .00006033  00000+0  24021-3 0  9994
2 59079  42.9998 209.8211 0001666 277.2284  82.8378 15.25921205 48726
STARLINK-31299          
1 59080U 24041G   25004.69166112  .00008686  00000+0  21510-3 0  9995
2 59080  42.9924 119.9066 0001084 156.9226 203.1679 15.40680734 49773
STARLINK-31292          
1 59081U 24041H   25004.95228158  .00001245  00000+0  57473-4 0  9996
2 59081  43.0014 210.1032 0001319 271.5317  88.5383 15.25888519 48724
STARLINK-31286          
1 59082U 24041J   25004.95000886  .00000031  00000+0  11038-4 0  9992
2 59082  43.0012 210.0804 0000914 252.7415 107.3336 15.25899602 48801
STARLINK-31252          
1 59083U 24041K   25004.91667824  .00463822  00000+0  20415-2 0  9998
2 59083  42.9931 150.7691 0023317 330.2875 332.0789 15.82152364  5855
STARLINK-31261          
1 59084U 24041L   25004.91381594  .00004080  00000+0  16571-3 0  9992
2 59084  42.9964 209.8018 0001894 272.9274  87.1360 15.25910465 48774
STARLINK-31290          
1 59085U 24041M   25004.89993686  .00052449  00000+0  13366-2 0  9991
2 59085  42.9985 205.3860 0013302 289.7365  70.2055 15.38681114 48918
STARLINK-31279          
1 59086U 24041N   25004.91155287  .00001654  00000+0  73050-4 0  9992
2 59086  42.9982 209.7919 0001561 282.1270  77.9406 15.25911602 48777
STARLINK-31266          
1 59087U 24041P   25004.93869633  .00001629  00000+0  72132-4 0  9994
2 59087  43.0083 209.9797 0001419 254.7460 105.3234 15.25903207 48773
STARLINK-31313          
1 59088U 24041Q   25004.93643799  .00000706  00000+0  36828-4 0  9995
2 59088  43.0050 209.9631 0000967 276.5515  83.5225 15.25908965 48723
STARLINK-31307          
1 59089U 24041R   25004.69708697  .00000722  00000+0  37468-4 0  9997
2 59089  43.0011 210.7746 0001879 289.9021  70.1627 15.25901658 48743
STARLINK-31316          
1 59090U 24041S   25004.80883558  .00007141  00000+0  17802-3 0  9993
2 59090  42.9973 173.5633 0000880 260.2258  99.8499 15.40703354 49078
STARLINK-31310          
1 59092U 24041U   25004.92964100  .00001992  00000+0  85964-4 0  9994
2 59092  43.0034 209.9113 0000874 275.8138  84.2613 15.25910341 48725
STARLINK-31343          
1 59093U 24041V   25004.90701668  .00003004  00000+0  12462-3 0  9999
2 59093  42.9991 209.7624 0001739 278.8867  81.1788 15.25917655 48773
STARLINK-31295          
1 59095U 24041X   25004.92512030  .00002214  00000+0  94472-4 0  9990
2 59095  43.0015 209.8795 0001398 288.5917  71.4782 15.25902484 48724
STARLINK-31291          
1 59096U 24041Y   25004.90476537  .00000410  00000+0  25532-4 0  9997
2 59096  43.0002 209.7452 0001373 248.1306 111.9399 15.25904438 48722
STARLINK-31312          
1 59152U 24044A   25004.18585933  .00009214  00000+0  22788-3 0  9994
2 59152  43.0055 331.4602 0002430 281.0380  79.0203 15.40659674 48382
STARLINK-31308          
1 59153U 24044B   25004.91317537  .00009634  00000+0  23761-3 0  9997
2 59153  43.0023 330.1440 0001232 279.2349  80.8368 15.40698071 48473
STARLINK-31270          
1 59154U 24044C   25004.70357753  .00003513  00000+0  14427-3 0  9998
2 59154  43.0014   8.3318 0000893 289.8762  70.1993 15.25859476 48006
STARLINK-31341          
1 59155U 24044D   25004.29063407  .00046158  00000+0  17653-2 0  9998
2 59155  43.0041  11.2814 0004710 288.4664  71.5675 15.25866075 47902
STARLINK-31338          
1 59156U 24044E   25004.28835231  .00020562  00000+0  79220-3 0  9990
2 59156  42.9983  11.2637 0001312 232.5821 127.4910 15.25972616 47901
STARLINK-31334          
1 59157U 24044F   25004.28607216  .00005453  00000+0  21820-3 0  9996
2 59157  42.9982  11.2481 0000517 206.6226 153.4598 15.25900162 47903
STARLINK-31297          
1 59158U 24044G   25004.70130500  .00013088  00000+0  50891-3 0  9994
2 59158  43.0075   8.3120 0000462 290.9619  69.1183 15.25933899 48005
STARLINK-31182          
1 59159U 24044H   25004.28155804  .00005673  00000+0  22672-3 0  9999
2 59159  43.0035  11.2098 0001401 253.4656 106.6041 15.25883818 47934
STARLINK-31327          
1 59160U 24044J   25004.69904576  .00011879  00000+0  46297-3 0  9998
2 59160  43.0020   8.3011 0000976 280.6403  79.4338 15.25928796 48000
STARLINK-31256          
1 59161U 24044K   25004.34247337 -.00007188  00000+0 -26487-3 0  9995
2 59161  43.0025  10.8062 0001858 249.7848 110.2804 15.25947854 47949
STARLINK-31272          
1 59162U 24044L   25004.73296905  .00010574  00000+0  41366-3 0  9998
2 59162  43.0033   8.5764 0000583 285.7731  74.3055 15.25894465 47977
STARLINK-31278          
1 59163U 24044M   25004.73071104  .00004041  00000+0  16423-3 0  9999
2 59163  43.0048   8.5521 0000976 109.2419 250.8538 15.25912406 47977
STARLINK-31309          
1 59164U 24044N   25004.72843406  .00000605  00000+0  32957-4 0  9994
2 59164  43.0041   8.5335 0001469 232.2684 127.8034 15.25913039 48005
STARLINK-31325          
1 59165U 24044P   25004.72618139  .00001952  00000+0  84411-4 0  9996
2 59165  43.0019   8.5184 0000214  71.3644 288.7231 15.25916295 47976
STARLINK-31342          
1 59166U 24044Q   25004.72389559  .00002807  00000+0  11705-3 0  9993
2 59166  43.0076   8.5009 0001643 282.0289  78.0378 15.25927641 48003
STARLINK-31298          
1 59167U 24044R   25004.72166184  .00009030  00000+0  35434-3 0  9991
2 59167  43.0031   8.4769 0001172 266.5082  93.5635 15.25937054 47974
STARLINK-31322          
1 59168U 24044S   25004.42777983  .00002828  00000+0  11784-3 0  9994
2 59168  42.9955   9.7038 0001763 295.7643  64.3026 15.25925991 47960
STARLINK-31329          
1 59169U 24044T   25004.69460526 -.00013286  00000+0 -50061-3 0  9999
2 59169  42.9989   8.2649 0000192 149.8813 210.2049 15.25804918 47976
STARLINK-31340          
1 59170U 24044U   25004.96624123  .00005645  00000+0  14209-3 0  9998
2 59170  43.0002 338.3478 0003473 262.6971  97.3491 15.40745679 48349
STARLINK-31344          
1 59171U 24044V   25004.69228245 -.00004719  00000+0 -17086-3 0  9993
2 59171  43.0066   8.2528 0001008 264.9173  95.1563 15.25878046 48007
STARLINK-31348          
1 59172U 24044W   25004.90420632  .00002355  00000+0  63587-4 0  9992
2 59172  43.0014 330.0753 0001628 250.1416 109.9265 15.40717171 48430
STARLINK-31289          
1 59173U 24044X   25004.70806004  .00002480  00000+0  10457-3 0  9998
2 59173  43.0067   8.3610 0000937 274.0238  86.0506 15.25928455 48003
STARLINK-31283          
1 59174U 24044Y   25004.91667824  .00025160  00000+0  60699-3 0  9990
2 59174  43.0020 330.2454 0001899 240.2642  89.4716 15.40729104  5907
STARLINK-31439          
1 59178U 24045A   25004.68924464  .00011057  00000+0  27163-3 0  9994
2 59178  43.0039   0.3076 0000953 280.9192  79.1557 15.40693957 47492
STARLINK-31410          
1 59179U 24045B   25004.39858240  .00004582  00000+0  11692-3 0  9996
2 59179  43.0035   1.5606 0000393 216.7012 143.3818 15.40690715 47456
STARLINK-31395          
1 59180U 24045C   25003.99836633  .00002604  00000+0  69473-4 0  9999
2 59180  43.0022   3.7144 0000796 262.7867  97.2899 15.40746187 47395
STARLINK-31486          
1 59181U 24045D   25004.36062422  .00009674  00000+0  23881-3 0  9995
2 59181  43.0051   2.1437 0001855 277.0462  83.0184 15.40666563 47448
STARLINK-31411          
1 59182U 24045E   25004.67805314  .00005722  00000+0  14428-3 0  9992
2 59182  42.9985   0.2234 0002708 253.0387 107.0173 15.40672473 47492
STARLINK-31347          
1 59183U 24045F   25004.95516531  .00241101  00000+0  16297-2 0  9992
2 59183  42.9962 340.4164 0003305 169.1470 190.9470 15.73549782 47744
STARLINK-31382          
1 59184U 24045G   25004.26444640  .00012221  00000+0  29988-3 0  9999
2 59184  43.0004   2.2721 0000564 189.5970 170.4876 15.40646272 47436
STARLINK-31394          
1 59185U 24045H   25004.91667824  .00004528  00000+0  11563-3 0  9994
2 59185  43.0023 357.4871 0001490 266.0027 191.4468 15.40689347  5942
STARLINK-31403          
1 59186U 24045J   25004.66555284  .00006811  00000+0  17032-3 0  9997
2 59186  43.0017 344.3463 0000439 154.3785 205.7093 15.40670936 47617
STARLINK-31514          
1 59187U 24045K   25004.39635140  .00015733  00000+0  38307-3 0  9999
2 59187  43.0047   1.5427 0000967 287.8682  72.2069 15.40704562 47452
STARLINK-31478          
1 59188U 24045L   25004.66894207 -.00045512  00000+0 -10898-2 0  9995
2 59188  43.0012 359.2776 0002635 260.7600  99.2959 15.40667092 47508
STARLINK-31498          
1 59189U 24045M   25004.69583287 -.00002431  00000+0 -50922-4 0  9999
2 59189  43.0003 359.4859 0003237 266.6675  93.3811 15.40701479 47509
STARLINK-31563          
1 59190U 24045N   25004.67358694  .00004294  00000+0  11011-3 0  9993
2 59190  43.0042   0.1865 0001404 277.3628  82.7069 15.40669976 47492
STARLINK-31551          
1 59191U 24045P   25004.67581929  .00016233  00000+0  39504-3 0  9996
2 59191  42.9899   0.2039 0003743 272.6857  87.3571 15.40695226 47491
STARLINK-31536          
1 59192U 24045Q   25004.91667824  .00068029  00000+0  16244-2 0  9998
2 59192  43.0013 357.8755 0001580 273.3033  10.0279 15.40642603  5908
STARLINK-31548          
1 59193U 24045R   25004.97307960  .00013099  00000+0  32063-3 0  9992
2 59193  43.0018 358.1280 0000431 297.9810  62.1003 15.40669293 47543
STARLINK-31542          
1 59194U 24045S   25004.68253587  .00009758  00000+0  24073-3 0  9995
2 59194  42.9956   0.2590 0001947 257.3501 102.7138 15.40678624 47494
